STARLINK-32372          
1 61960U 24210B   26068.29866181  .00037691  00000+0  13711-2 0  9994
2 61960  42.9993 181.7408 0001873 287.3344  72.7303 15.27605117 74726
AL MUNTHER              
1 63240U 25052AG  26068.64540749  .00017933  00000+0  65015-3 0  9992
2 63240  97.4001 323.9152 0008027 130.7043 229.4895 15.28381521 54798
